SWAS                    
1 25560U 98071A   26068.53487068  .00004636  00000+0  29986-3 0  9991
2 25560  69.8952 124.3662 0004099  14.3215 345.8065 15.08888192482231
STARLINK-3560           
1 51859U 22022H   26068.05968833 -.00001234  00000+0 -59471-4 0  9991
2 51859  53.2181  11.9550 0001385  97.9020 262.2130 15.08833754223068
